     2.11           NAVIGATION DATA     GPS(GPS)            RINEX VERSION / TYPE
cnvtToRINEX 2.19.0  convertToRINEX OPR  08-Jul-14 14:18 UTC PGM / RUN BY / DATE 
----------------------------------------------------------- COMMENT             
    0.1956D-07  0.2235D-07 -0.1192D-06 -0.1192D-06          ION ALPHA           
    0.1208D+06  0.9830D+05 -0.1966D+06 -0.6554D+05          ION BETA            
   -0.465661287308D-08-0.150990331349D-13   589824      255 DELTA-UTC: A0,A1,T,W
    16                                                      LEAP SECONDS        
                                                            END OF HEADER       
29 14 05 08 19 59 28.0 0.531155150384D-03 0.272848410532D-11 0.000000000000D+00
    0.700000000000D+02-0.342187500000D+02 0.451875965305D-08-0.306466164513D+01
   -0.183284282684D-05 0.162323331460D-02 0.574067234993D-05 0.515370961761D+04
    0.417568000000D+06-0.447034835815D-07-0.232159115845D+01 0.484287738800D-07
    0.969165830493D+00 0.273187500000D+03-0.885615998398D+00-0.812140971788D-08
   -0.140362989539D-09 0.100000000000D+01 0.179100000000D+04 0.000000000000D+00
    0.240000000000D+01 0.000000000000D+00-0.977888703346D-08 0.700000000000D+02
    0.410418000000D+06 0.400000000000D+01 0.000000000000D+00 0.000000000000D+00
27 14 05 08 20 00  0.0-0.172248110175D-04 0.159161572810D-11 0.000000000000D+00
    0.113000000000D+03-0.305000000000D+02 0.480019994760D-08 0.546909012727D+00
   -0.160560011864D-05 0.120644667186D-02 0.473856925964D-05 0.515366944122D+04
    0.417600000000D+06-0.186264514923D-08-0.237605651871D+01 0.149011611938D-07
    0.963205744243D+00 0.283843750000D+03 0.109755205071D+00-0.833677583160D-08
   -0.155006456641D-09 0.100000000000D+01 0.179100000000D+04 0.000000000000D+00
    0.340000000000D+01 0.000000000000D+00 0.186264514923D-08 0.113000000000D+03
    0.410418000000D+06 0.400000000000D+01 0.000000000000D+00 0.000000000000D+00
 3 14 05 08 20 00  0.0 0.362174119800D-03 0.511590769747D-11 0.000000000000D+00
    0.660000000000D+02-0.109375000000D+02 0.546737059507D-08-0.922026671803D+00
   -0.372529029846D-06 0.169450956164D-01 0.478699803352D-05 0.515378462791D+04
    0.417600000000D+06-0.229105353355D-06-0.252477222098D+01 0.292435288429D-06
    0.938213526805D+00 0.274656250000D+03 0.137950716441D+01-0.888322716493D-08
   -0.467876631797D-10 0.100000000000D+01 0.179100000000D+04 0.000000000000D+00
    0.340000000000D+01 0.000000000000D+00-0.465661287308D-08 0.660000000000D+02
    0.410736000000D+06 0.400000000000D+01 0.000000000000D+00 0.000000000000D+00
23 14 05 08 19 59 44.0-0.188923440874D-04-0.306954461848D-11 0.000000000000D+00
    0.000000000000D+00 0.000000000000D+00 0.000000000000D+00 0.000000000000D+00
    0.000000000000D+00 0.000000000000D+00 0.000000000000D+00 0.000000000000D+00
    0.000000000000D+00 0.000000000000D+00 0.000000000000D+00 0.000000000000D+00
    0.000000000000D+00 0.000000000000D+00 0.000000000000D+00 0.000000000000D+00
    0.000000000000D+00 0.100000000000D+01 0.179100000000D+04 0.000000000000D+00
    0.240000000000D+01 0.630000000000D+02-0.200234353542D-07 0.160000000000D+02
    0.000000000000D+00 0.400000000000D+01 0.000000000000D+00 0.000000000000D+00
27 14 05 08 19 59 44.0-0.172257423401D-04 0.159161572810D-11 0.000000000000D+00
    0.270000000000D+02-0.305000000000D+02 0.480019994760D-08 0.544575955363D+00
   -0.160560011864D-05 0.120644492563D-02 0.473856925964D-05 0.515366943741D+04
    0.417584000000D+06-0.186264514923D-08-0.237605637535D+01 0.149011611938D-07
    0.963205742780D+00 0.283843750000D+03 0.109754561387D+00-0.833677583160D-08
   -0.155006456641D-09 0.100000000000D+01 0.179100000000D+04 0.000000000000D+00
    0.240000000000D+01 0.000000000000D+00 0.186264514923D-08 0.270000000000D+02
    0.411078000000D+06 0.400000000000D+01 0.000000000000D+00 0.000000000000D+00
19 14 05 08 20 00  0.0-0.455712433904D-03-0.227373675443D-11 0.000000000000D+00
    0.890000000000D+02-0.349375000000D+02 0.475626954629D-08-0.328197878119D+00
   -0.191666185856D-05 0.102910327259D-01 0.504590570927D-05 0.515360511589D+04
    0.417600000000D+06 0.122934579849D-06-0.227976363148D+01 0.150874257088D-06
    0.965534088085D+00 0.282593750000D+03 0.423503367335D+00-0.841713632180D-08
   -0.213580325049D-09 0.100000000000D+01 0.179100000000D+04 0.000000000000D+00
    0.240000000000D+01 0.000000000000D+00-0.149011611938D-07 0.890000000000D+02
    0.413226000000D+06 0.400000000000D+01 0.000000000000D+00 0.000000000000D+00
